#dP2018  7  3  0  0  0.00000000      96 __u+U ITR00 FIT  IAC
## 2008 172800.00000000   900.00000000 58302 0.0000000000000
+   86   C01C02C03C04C05C06C07C08C09C10C11C12C13C14E01E02E03
+        E04E05E07E08E09E11E12E14E18E19E24E26E30G01G02G03G04
+        G05G06G07G08G09G10G11G12G13G14G15G16G17G18G19G20G21
+        G22G23G24G25G26G27G28G29G30G31G32J01R01R02R03R04R05
+        R07R08R09R10R11R13R14R15R16R17R18R19R20R21R22R23R24
+        R26  0  0  0  0  0  0  0  0  0  0  0  0  0  0  0  0
++         0  0  0  0  0  0  0  0  0  0  0  0  0  0  0  0  0
++         0  0  0  0  0  0  0  0  0  0  0  0  0  0  0  0  0
++         0  0  0  0  0  0  0  0  0  0  0  0  0  0  0  0  0
++         0  0  0  0  0  0  0  0  0  0  0  0  0  0  0  0  0
++         0  0  0  0  0  0  0  0  0  0  0  0  0  0  0  0  0
++         0  0  0  0  0  0  0  0  0  0  0  0  0  0  0  0  0
%c M  cc GPS ccc cccc cccc cccc cccc ccccc ccccc ccccc ccccc
%c cc cc ccc ccc cccc cccc cccc cccc ccccc ccccc ccccc ccccc
%f  0.0000000  0.000000000  0.00000000000  0.000000000000000
%f  0.0000000  0.000000000  0.00000000000  0.000000000000000
%i    0    0    0    0      0      0      0      0         0
%i    0    0    0    0      0      0      0      0         0
/*                                                          
/*   RSA / INFORMATION & ANALYSIS CENTER (IAC) OF MCC       
/*   ULTRA-RAPID DETERMINATION                              
/* PCV:IGS14_2000 OL/AL:FES2004  NONE     YN ORB:CoN CLK:CoN
*  2018 07 03 17  0  0.00000000
PC01 -32338.343053  27071.019618   -807.637881    292.548199
PC02   4376.932791  41938.019477      2.605321     -5.022881
PC03      0.000000      0.000000      0.000000 999999.999999
PC04 -39599.074357  14457.583084   -668.738265   -277.860614
PC05  21956.784735  36008.606935    142.621389    326.211023
PC06 -15467.332520  21123.676905  33281.953854     81.527320
PC07 -23674.915759  34721.752368  -5643.369858     82.854167
PC08  -6439.446409  32496.890824 -25887.398241    420.822448
PC09    613.823302  25367.103652  33900.209355     17.643027
PC10 -10691.875623  36013.098156 -19391.086663   -357.667771
PC11 -20744.009451 -18595.568686  -2152.003676   -575.809623
PC12  -7754.118451 -21938.142517  15521.553118    501.154573
PC13   1972.197902  39039.475821 -15478.992550   -161.225306
PC14 -17594.169155  -9196.351669 -19527.798883    176.476118
PE01 -12071.330471  25950.298702  -7578.804746   -382.722706
PE02  12045.297536 -25945.173112   7605.694300     18.134006
PE03   7477.310152 -16202.310120 -23604.430647    -50.348055
PE04  14825.629146  15770.164024  20205.383865    -67.724994
PE05  25515.739544  -7140.120558 -13186.799194    235.104066
PE07 -28563.323608  -6047.084392  -4880.752086      4.407906
PE08 -14998.192334 -15494.516031 -20268.846491   6551.589253
PE09  28592.103926   5799.862480   4979.236620   6745.478436
PE11  19603.610230  12233.721611  18502.741150   1963.427319
PE12  13458.748977  26350.026318   1184.031872   4520.364550
PE14   9143.577228  24108.712110 -18782.432151   6557.128444
PE18 -15457.410544 -17718.818762   7639.774903   6086.600314
PE19  -9502.054693  15624.578700  23286.713828     23.845096
PE24  17944.426481   1291.456330 -23517.844822   6620.316087
PE26 -14331.275250   8449.882453 -24483.916527   5751.520188
PE30  -4146.942840 -19269.911399  22072.620188   5708.028874
PG01  13286.536094 -11335.644507  19760.675412    -62.173005
PG02 -14020.097948 -12706.912531 -18173.548723     68.183202
PG03  22955.248531 -13264.199506    835.946579     99.708749
PG04   5461.493925  14013.816312 -22127.371205     75.020217
PG05 -19828.604078  -2425.174795 -17711.767790     -5.163539
PG06  -6570.885726 -24193.432471  -8702.581558    390.629547
PG07   6086.518049 -23954.415057  -8848.096339    165.026950
PG08  23583.826194   3201.827587  11990.230930   -106.913675
PG09   7507.876250 -13463.199462 -21655.881404    514.231612
PG10   -441.523299  16985.180763  20418.211710    188.857874
PG11  14621.564881  -6775.249450  20553.390835   -731.598977
PG12 -24309.928643   9195.740713   4765.256537    323.384689
PG13 -23097.514296 -11877.944429   5459.735999    -92.856490
PG14  17488.786959  18412.002839   8388.885396    -97.560748
PG15 -23187.690300    455.210817  13067.465921   -351.483224
PG16  18834.812145   4294.986167 -18571.762203     19.166488
PG17  -9800.793052 -18855.687279  16395.226393    -81.996978
PG18  15137.902790  -1661.501630  21292.474650     29.179976
PG19 -16851.911458 -18410.659338   8543.991668   -423.427962
PG20  -9243.593271  20413.858461  14074.022041    511.728673
PG21  -1640.126261  25909.040529  -4868.300428   -372.744134
PG22  23679.133020  -8026.363300   9180.114327   -446.069159
PG23  18600.293728  -5071.127183 -18151.280713   -215.026273
PG24 -14635.869217   7391.760481  20726.489722    -52.087816
PG25 -18009.033419  17536.086280  -8386.174375   -610.481774
PG26  10284.811524  11558.574428 -21607.275420    -95.580679
PG27  23713.048926  12249.382288    791.718325    363.016705
PG28   4621.092113 -17279.905950  20271.868902    728.490694
PG29  -9997.559165  11014.433303 -22029.331951    421.417049
PG30     11.690905 -26449.213587    994.490071     55.070818
PG31   7169.772016  23050.348436 -10550.416469    110.284243
PG32  10514.784776  18473.968860  16022.421635   -482.544880
PJ01 -29337.539574  29164.422900  13508.118818   -194.586273
PR01  20676.654147   4704.562023  14173.796146     28.545288
PR02  24578.895821  -4639.980114  -5085.077373    317.850265
PR03  12736.116014 -10490.654988 -19422.174490    136.693980
PR04  -7061.367244 -10043.484020 -22334.446927    267.146035
PR05 -22073.907418  -3606.085244 -12276.365514    -34.190817
PR07 -12206.301083  10590.984039  19764.002093    -41.536411
PR08   6338.312288  10226.455541  22550.197598     22.443648
PR09 -14822.945275  12815.892035  16385.356998     16.264220
PR10 -11318.350397  22897.477103    804.343001     27.194934
PR11   -952.117801  19905.857775 -15940.591483    -33.440321
PR13  14400.525408 -13005.236537 -16568.229570    -12.085035
PR14  11262.316892 -22854.386305   -982.954960     28.739651
PR15   3817.151380 -21786.620040  12795.186671    -12.642519
PR16  -9300.014937  -6016.472158  22959.450697     96.179427
PR17   1752.270885 -14424.764865  20976.460509    145.015574
PR18 -10292.726223 -21649.461187   8636.988457    201.572312
PR19 -16434.181938 -17394.661972  -8835.467170    -55.823812
PR20 -12951.745512  -1600.153766 -21904.956236   -343.819295
PR21  -1444.206665  14604.739888 -20861.975213      8.978039
PR22  11516.811157  21866.265150  -6583.194011    -54.938173
PR23  16922.338813  14502.356002  12401.197005    163.499979
PR24  12553.781877    447.495114  22173.456102   -168.408755
PR26 -13489.590442  -2276.663366 -21526.524378     31.160372
EOF
